[{"OBJECT_NAME":"STARLINK-5507","OBJECT_ID":"2023-021L","EPOCH":"2026-03-09T17:15:36.504000","MEAN_MOTION":14.98330813,"ECCENTRICITY":0.00031505,"INCLINATION":70.0004,"RA_OF_ASC_NODE":204.3366,"ARG_OF_PERICENTER":268.0006,"MEAN_ANOMALY":92.0792,"EPHEMERIS_TYPE":0,"CLASSIFICATION_TYPE":"U","NORAD_CAT_ID":55638,"ELEMENT_SET_NO":999,"REV_AT_EPOCH":16830,"BSTAR":9.023888e-6,"MEAN_MOTION_DOT":1.5e-7,"MEAN_MOTION_DDOT":0},{"OBJECT_NAME":"COSMOS 252 DEB","OBJECT_ID":"1968-097EN","EPOCH":"2026-03-09T15:11:21.872256","MEAN_MOTION":14.27295539,"ECCENTRICITY":0.0410395,"INCLINATION":62.7404,"RA_OF_ASC_NODE":101.8812,"ARG_OF_PERICENTER":333.6145,"MEAN_ANOMALY":24.4518,"EPHEMERIS_TYPE":0,"CLASSIFICATION_TYPE":"U","NORAD_CAT_ID":18490,"ELEMENT_SET_NO":999,"REV_AT_EPOCH":69820,"BSTAR":0.0011143,"MEAN_MOTION_DOT":6.631e-5,"MEAN_MOTION_DDOT":0}]
